{
  "type": "FeatureCollection",
  "features": [
    {
      "type": "Feature",
      "geometry": {
        "type": "LineString",
        "coordinates": [
          [
            -80.374452,
            25.757127
          ],
          [
            -80.374456,
            25.75735
          ],
          [
            -80.374891,
            25.75736
          ],
          [
            -80.375116,
            25.757413
          ],
          [
            -80.375524,
            25.757516
          ],
          [
            -80.375625,
            25.757597
          ],
          [
            -80.375943,
            25.757881
          ],
          [
            -80.375972,
            25.759135
          ],
          [
            -80.375999,
            25.75928
          ],
          [
            -80.375985,
            25.759306
          ],
          [
            -80.375968,
            25.759388
          ],
          [
            -80.375995,
            25.759468
          ],
          [
            -80.376008,
            25.759485
          ],
          [
            -80.375986,
            25.759646
          ],
          [
            -80.376,
            25.759962
          ],
          [
            -80.376043,
            25.760132
          ],
          [
            -80.376116,
            25.760295
          ],
          [
            -80.376129,
            25.760578
          ],
          [
            -80.376138,
            25.760903
          ],
          [
            -80.376105,
            25.760955
          ],
          [
            -80.375994,
            25.761041
          ],
          [
            -80.374592,
            25.761068
          ],
          [
            -80.374294,
            25.761074
          ],
          [
            -80.372472,
            25.761108
          ],
          [
            -80.372371,
            25.76111
          ],
          [
            -80.371196,
            25.761132
          ],
          [
            -80.370322,
            25.761153
          ],
          [
            -80.36855,
            25.761194
          ],
          [
            -80.368369,
            25.761202
          ],
          [
            -80.368381,
            25.7614
          ],
          [
            -80.368388,
            25.761508
          ],
          [
            -80.368403,
            25.761744
          ],
          [
            -80.368425,
            25.762195
          ],
          [
            -80.368429,
            25.76228
          ],
          [
            -80.368477,
            25.763074
          ],
          [
            -80.368539,
            25.763981
          ],
          [
            -80.36854,
            25.763992
          ],
          [
            -80.368569,
            25.764392
          ],
          [
            -80.368599,
            25.764885
          ],
          [
            -80.368632,
            25.765272
          ],
          [
            -80.368653,
            25.765539
          ],
          [
            -80.368701,
            25.766094
          ],
          [
            -80.368737,
            25.766441
          ],
          [
            -80.36875,
            25.766577
          ],
          [
            -80.36877,
            25.766762
          ],
          [
            -80.368824,
            25.767323
          ],
          [
            -80.36883,
            25.767401
          ],
          [
            -80.368836,
            25.767468
          ],
          [
            -80.368845,
            25.767565
          ],
          [
            -80.368883,
            25.767995
          ],
          [
            -80.368916,
            25.768448
          ],
          [
            -80.368918,
            25.768576
          ],
          [
            -80.36905,
            25.770137
          ],
          [
            -80.369085,
            25.770576
          ],
          [
            -80.369097,
            25.770737
          ],
          [
            -80.369258,
            25.772707
          ],
          [
            -80.369264,
            25.772768
          ],
          [
            -80.369331,
            25.773443
          ],
          [
            -80.369343,
            25.773595
          ],
          [
            -80.36935,
            25.773683
          ],
          [
            -80.369398,
            25.774399
          ],
          [
            -80.369414,
            25.774638
          ],
          [
            -80.369428,
            25.774834
          ],
          [
            -80.369455,
            25.775174
          ],
          [
            -80.36948,
            25.775522
          ],
          [
            -80.369482,
            25.775686
          ],
          [
            -80.36947,
            25.775995
          ],
          [
            -80.369427,
            25.776393
          ],
          [
            -80.369105,
            25.778731
          ],
          [
            -80.369087,
            25.778861
          ],
          [
            -80.369042,
            25.779198
          ],
          [
            -80.368811,
            25.779594
          ],
          [
            -80.36872,
            25.779688
          ],
          [
            -80.36859,
            25.779782
          ],
          [
            -80.368449,
            25.779853
          ],
          [
            -80.368261,
            25.779911
          ],
          [
            -80.366302,
            25.780348
          ],
          [
            -80.365254,
            25.780607
          ],
          [
            -80.364941,
            25.780675
          ],
          [
            -80.364445,
            25.780749
          ],
          [
            -80.36417,
            25.780902
          ],
          [
            -80.362657,
            25.781011
          ],
          [
            -80.36194,
            25.781047
          ],
          [
            -80.360482,
            25.781086
          ],
          [
            -80.359745,
            25.781104
          ],
          [
            -80.357688,
            25.781158
          ],
          [
            -80.357421,
            25.781165
          ],
          [
            -80.355586,
            25.781198
          ],
          [
            -80.350827,
            25.781204
          ],
          [
            -80.346613,
            25.781216
          ],
          [
            -80.345601,
            25.781219
          ],
          [
            -80.343055,
            25.781227
          ],
          [
            -80.341836,
            25.781241
          ],
          [
            -80.340257,
            25.781259
          ],
          [
            -80.336964,
            25.781268
          ],
          [
            -80.336399,
            25.781271
          ],
          [
            -80.333358,
            25.78127
          ],
          [
            -80.328767,
            25.781281
          ],
          [
            -80.328224,
            25.781284
          ],
          [
            -80.32611,
            25.781254
          ],
          [
            -80.324573,
            25.781171
          ],
          [
            -80.323754,
            25.7811
          ],
          [
            -80.322699,
            25.780973
          ],
          [
            -80.321234,
            25.780728
          ],
          [
            -80.319885,
            25.780425
          ],
          [
            -80.317245,
            25.779791
          ],
          [
            -80.316668,
            25.779671
          ],
          [
            -80.3162,
            25.779602
          ],
          [
            -80.315495,
            25.779554
          ],
          [
            -80.315025,
            25.779553
          ],
          [
            -80.314325,
            25.779589
          ],
          [
            -80.313865,
            25.779643
          ],
          [
            -80.313401,
            25.779721
          ],
          [
            -80.312756,
            25.779873
          ],
          [
            -80.312026,
            25.780109
          ],
          [
            -80.311575,
            25.780296
          ],
          [
            -80.309959,
            25.781038
          ],
          [
            -80.309503,
            25.781253
          ],
          [
            -80.30903,
            25.781483
          ],
          [
            -80.30715,
            25.782398
          ],
          [
            -80.305062,
            25.783391
          ],
          [
            -80.304494,
            25.783624
          ],
          [
            -80.304036,
            25.783779
          ],
          [
            -80.303463,
            25.783939
          ],
          [
            -80.303033,
            25.784032
          ],
          [
            -80.302497,
            25.784119
          ],
          [
            -80.301745,
            25.784191
          ],
          [
            -80.299954,
            25.784269
          ],
          [
            -80.299453,
            25.78429
          ],
          [
            -80.297309,
            25.784378
          ],
          [
            -80.295607,
            25.784453
          ],
          [
            -80.294877,
            25.784467
          ],
          [
            -80.294335,
            25.784461
          ],
          [
            -80.29345,
            25.784416
          ],
          [
            -80.293112,
            25.784392
          ],
          [
            -80.292653,
            25.784345
          ],
          [
            -80.292084,
            25.78429
          ],
          [
            -80.291127,
            25.784144
          ],
          [
            -80.290406,
            25.784069
          ],
          [
            -80.289644,
            25.784039
          ],
          [
            -80.2891,
            25.784049
          ],
          [
            -80.288787,
            25.784069
          ],
          [
            -80.288274,
            25.784118
          ],
          [
            -80.287869,
            25.784172
          ],
          [
            -80.287389,
            25.784256
          ],
          [
            -80.284497,
            25.784842
          ],
          [
            -80.283098,
            25.785118
          ],
          [
            -80.282614,
            25.785191
          ],
          [
            -80.281846,
            25.785266
          ],
          [
            -80.281283,
            25.785292
          ],
          [
            -80.28068,
            25.785291
          ],
          [
            -80.280071,
            25.785261
          ],
          [
            -80.279619,
            25.78522
          ],
          [
            -80.279105,
            25.785153
          ],
          [
            -80.278669,
            25.785079
          ],
          [
            -80.277912,
            25.784913
          ],
          [
            -80.277354,
            25.784758
          ],
          [
            -80.276607,
            25.784506
          ],
          [
            -80.276157,
            25.784327
          ],
          [
            -80.274746,
            25.783724
          ],
          [
            -80.274071,
            25.783478
          ],
          [
            -80.27359,
            25.783334
          ],
          [
            -80.272936,
            25.783186
          ],
          [
            -80.272383,
            25.783096
          ],
          [
            -80.271918,
            25.783045
          ],
          [
            -80.271469,
            25.783019
          ],
          [
            -80.27088,
            25.783015
          ],
          [
            -80.27037,
            25.78304
          ],
          [
            -80.269835,
            25.783096
          ],
          [
            -80.26946,
            25.783151
          ],
          [
            -80.268883,
            25.78327
          ],
          [
            -80.268343,
            25.783413
          ],
          [
            -80.267862,
            25.783571
          ],
          [
            -80.267465,
            25.783722
          ],
          [
            -80.265869,
            25.784387
          ],
          [
            -80.264361,
            25.784979
          ],
          [
            -80.263975,
            25.78512
          ],
          [
            -80.263821,
            25.78518
          ],
          [
            -80.263274,
            25.785374
          ],
          [
            -80.26284,
            25.785493
          ],
          [
            -80.262353,
            25.785597
          ],
          [
            -80.261962,
            25.785655
          ],
          [
            -80.261446,
            25.7857
          ],
          [
            -80.260469,
            25.785744
          ],
          [
            -80.260067,
            25.785763
          ],
          [
            -80.25749,
            25.78588
          ],
          [
            -80.256997,
            25.7859
          ],
          [
            -80.256127,
            25.785898
          ],
          [
            -80.255635,
            25.78588
          ],
          [
            -80.255114,
            25.785848
          ],
          [
            -80.252691,
            25.78565
          ],
          [
            -80.252074,
            25.785596
          ],
          [
            -80.251586,
            25.785523
          ],
          [
            -80.251158,
            25.785433
          ],
          [
            -80.25089,
            25.785363
          ],
          [
            -80.248102,
            25.784526
          ],
          [
            -80.247812,
            25.784444
          ],
          [
            -80.24728,
            25.784332
          ],
          [
            -80.246657,
            25.784247
          ],
          [
            -80.246056,
            25.784215
          ],
          [
            -80.245418,
            25.784229
          ],
          [
            -80.244904,
            25.784274
          ],
          [
            -80.243961,
            25.784377
          ],
          [
            -80.243654,
            25.784318
          ],
          [
            -80.242185,
            25.784355
          ],
          [
            -80.241913,
            25.784362
          ],
          [
            -80.241607,
            25.784372
          ],
          [
            -80.240694,
            25.784382
          ],
          [
            -80.24029,
            25.784384
          ],
          [
            -80.239987,
            25.784272
          ],
          [
            -80.23985,
            25.784185
          ],
          [
            -80.239725,
            25.784049
          ],
          [
            -80.239555,
            25.783729
          ],
          [
            -80.239549,
            25.783601
          ],
          [
            -80.239537,
            25.78317
          ],
          [
            -80.239536,
            25.78311
          ],
          [
            -80.239525,
            25.782727
          ],
          [
            -80.239521,
            25.782606
          ],
          [
            -80.239511,
            25.782303
          ],
          [
            -80.239505,
            25.782179
          ],
          [
            -80.239477,
            25.781541
          ],
          [
            -80.239472,
            25.781387
          ],
          [
            -80.239467,
            25.781223
          ],
          [
            -80.239461,
            25.781037
          ],
          [
            -80.239454,
            25.780784
          ],
          [
            -80.239446,
            25.780532
          ],
          [
            -80.239441,
            25.780365
          ],
          [
            -80.239414,
            25.779462
          ],
          [
            -80.239401,
            25.779029
          ],
          [
            -80.239391,
            25.778664
          ],
          [
            -80.239367,
            25.777885
          ],
          [
            -80.239341,
            25.777111
          ],
          [
            -80.239337,
            25.776957
          ],
          [
            -80.239321,
            25.776335
          ],
          [
            -80.239311,
            25.776038
          ],
          [
            -80.239297,
            25.775543
          ],
          [
            -80.239277,
            25.774885
          ],
          [
            -80.239267,
            25.774568
          ],
          [
            -80.239251,
            25.774029
          ],
          [
            -80.239243,
            25.773807
          ],
          [
            -80.239238,
            25.773701
          ],
          [
            -80.239237,
            25.773651
          ],
          [
            -80.239236,
            25.773616
          ],
          [
            -80.239208,
            25.772795
          ],
          [
            -80.239191,
            25.772329
          ],
          [
            -80.239033,
            25.772334
          ],
          [
            -80.238842,
            25.772339
          ],
          [
            -80.238659,
            25.772345
          ],
          [
            -80.23846,
            25.772353
          ],
          [
            -80.238085,
            25.772365
          ],
          [
            -80.237962,
            25.772369
          ],
          [
            -80.237829,
            25.772373
          ],
          [
            -80.237589,
            25.77238
          ],
          [
            -80.237467,
            25.772383
          ],
          [
            -80.237069,
            25.77239
          ],
          [
            -80.236981,
            25.772351
          ],
          [
            -80.235453,
            25.772398
          ],
          [
            -80.234962,
            25.772376
          ],
          [
            -80.234605,
            25.772321
          ],
          [
            -80.234052,
            25.772174
          ],
          [
            -80.23388,
            25.772095
          ],
          [
            -80.233694,
            25.772008
          ],
          [
            -80.233304,
            25.771819
          ],
          [
            -80.232954,
            25.771651
          ],
          [
            -80.232845,
            25.77161
          ],
          [
            -80.232427,
            25.771487
          ],
          [
            -80.232097,
            25.771417
          ],
          [
            -80.231891,
            25.771391
          ],
          [
            -80.231745,
            25.771311
          ],
          [
            -80.231576,
            25.771262
          ],
          [
            -80.231153,
            25.771307
          ],
          [
            -80.231086,
            25.771285
          ],
          [
            -80.230991,
            25.771213
          ],
          [
            -80.230949,
            25.770789
          ],
          [
            -80.230902,
            25.770047
          ],
          [
            -80.230888,
            25.76958
          ],
          [
            -80.230878,
            25.769357
          ],
          [
            -80.230859,
            25.768846
          ],
          [
            -80.230834,
            25.768098
          ],
          [
            -80.23081,
            25.767202
          ],
          [
            -80.230766,
            25.766325
          ],
          [
            -80.230752,
            25.766078
          ],
          [
            -80.230746,
            25.765868
          ],
          [
            -80.230734,
            25.765419
          ],
          [
            -80.230611,
            25.765421
          ],
          [
            -80.230384,
            25.765424
          ],
          [
            -80.23028,
            25.765427
          ],
          [
            -80.229871,
            25.765439
          ],
          [
            -80.229751,
            25.765443
          ],
          [
            -80.229267,
            25.765457
          ],
          [
            -80.228994,
            25.765465
          ],
          [
            -80.228752,
            25.765471
          ],
          [
            -80.228497,
            25.765476
          ],
          [
            -80.228416,
            25.765477
          ],
          [
            -80.228147,
            25.765482
          ],
          [
            -80.227798,
            25.765492
          ],
          [
            -80.227679,
            25.765496
          ],
          [
            -80.227461,
            25.765502
          ],
          [
            -80.226618,
            25.765525
          ],
          [
            -80.225888,
            25.765542
          ],
          [
            -80.225827,
            25.765543
          ],
          [
            -80.225805,
            25.765544
          ],
          [
            -80.225709,
            25.765546
          ],
          [
            -80.225255,
            25.765558
          ],
          [
            -80.225026,
            25.765564
          ],
          [
            -80.224584,
            25.765578
          ],
          [
            -80.224055,
            25.765589
          ],
          [
            -80.224033,
            25.76559
          ],
          [
            -80.223607,
            25.765601
          ],
          [
            -80.222983,
            25.765617
          ],
          [
            -80.222884,
            25.765619
          ],
          [
            -80.222847,
            25.76562
          ],
          [
            -80.222514,
            25.765629
          ],
          [
            -80.222232,
            25.765637
          ],
          [
            -80.22208,
            25.765641
          ],
          [
            -80.221925,
            25.765645
          ],
          [
            -80.221793,
            25.765649
          ],
          [
            -80.221705,
            25.765651
          ],
          [
            -80.22152,
            25.765656
          ],
          [
            -80.221239,
            25.765664
          ],
          [
            -80.22107,
            25.765669
          ],
          [
            -80.220848,
            25.765676
          ],
          [
            -80.220544,
            25.765686
          ],
          [
            -80.220224,
            25.765693
          ],
          [
            -80.219525,
            25.765717
          ],
          [
            -80.219035,
            25.76573
          ],
          [
            -80.218992,
            25.765731
          ]
        ]
      },
      "properties": {
        "duration_s": 1810.2,
        "distance_m": 20590.5,
        "name": "Normal demo route",
        "stroke": "#808080",
        "synthetic": true
      }
    },
    {
      "type": "Feature",
      "geometry": {
        "type": "LineString",
        "coordinates": [
          [
            -80.374452,
            25.757127
          ],
          [
            -80.374456,
            25.75735
          ],
          [
            -80.374891,
            25.75736
          ],
          [
            -80.375116,
            25.757413
          ],
          [
            -80.375524,
            25.757516
          ],
          [
            -80.375625,
            25.757597
          ],
          [
            -80.375943,
            25.757881
          ],
          [
            -80.375972,
            25.759135
          ],
          [
            -80.375999,
            25.75928
          ],
          [
            -80.375985,
            25.759306
          ],
          [
            -80.375968,
            25.759388
          ],
          [
            -80.375995,
            25.759468
          ],
          [
            -80.376008,
            25.759485
          ],
          [
            -80.375986,
            25.759646
          ],
          [
            -80.376,
            25.759962
          ],
          [
            -80.376043,
            25.760132
          ],
          [
            -80.376116,
            25.760295
          ],
          [
            -80.376129,
            25.760578
          ],
          [
            -80.376138,
            25.760903
          ],
          [
            -80.376105,
            25.760955
          ],
          [
            -80.375994,
            25.761041
          ],
          [
            -80.374592,
            25.761068
          ],
          [
            -80.374294,
            25.761074
          ],
          [
            -80.372472,
            25.761108
          ],
          [
            -80.372371,
            25.76111
          ],
          [
            -80.371196,
            25.761132
          ],
          [
            -80.370322,
            25.761153
          ],
          [
            -80.36855,
            25.761194
          ],
          [
            -80.368369,
            25.761202
          ],
          [
            -80.368079,
            25.761211
          ],
          [
            -80.367754,
            25.761218
          ],
          [
            -80.367408,
            25.761225
          ],
          [
            -80.366852,
            25.761234
          ],
          [
            -80.366474,
            25.761242
          ],
          [
            -80.365651,
            25.761258
          ],
          [
            -80.36537,
            25.761264
          ],
          [
            -80.363546,
            25.761304
          ],
          [
            -80.360389,
            25.761368
          ],
          [
            -80.358054,
            25.761407
          ],
          [
            -80.357497,
            25.76142
          ],
          [
            -80.356708,
            25.761437
          ],
          [
            -80.355204,
            25.761467
          ],
          [
            -80.354892,
            25.761474
          ],
          [
            -80.354736,
            25.761477
          ],
          [
            -80.35412,
            25.761489
          ],
          [
            -80.353247,
            25.761509
          ],
          [
            -80.352916,
            25.761516
          ],
          [
            -80.352641,
            25.761521
          ],
          [
            -80.352381,
            25.761526
          ],
          [
            -80.352125,
            25.761531
          ],
          [
            -80.351861,
            25.761535
          ],
          [
            -80.351636,
            25.76154
          ],
          [
            -80.350944,
            25.761554
          ],
          [
            -80.350742,
            25.761558
          ],
          [
            -80.349923,
            25.761575
          ],
          [
            -80.349019,
            25.761594
          ],
          [
            -80.348272,
            25.761608
          ],
          [
            -80.347815,
            25.761618
          ],
          [
            -80.34757,
            25.761624
          ],
          [
            -80.346293,
            25.761649
          ],
          [
            -80.346003,
            25.761657
          ],
          [
            -80.345346,
            25.76167
          ],
          [
            -80.344165,
            25.761692
          ],
          [
            -80.342118,
            25.761734
          ],
          [
            -80.340899,
            25.761761
          ],
          [
            -80.340147,
            25.761775
          ],
          [
            -80.338148,
            25.761818
          ],
          [
            -80.337949,
            25.761823
          ],
          [
            -80.337204,
            25.761837
          ],
          [
            -80.336919,
            25.761843
          ],
          [
            -80.336769,
            25.761846
          ],
          [
            -80.336213,
            25.761856
          ],
          [
            -80.336102,
            25.761859
          ],
          [
            -80.335841,
            25.761866
          ],
          [
            -80.335549,
            25.761873
          ],
          [
            -80.335133,
            25.761887
          ],
          [
            -80.334919,
            25.761894
          ],
          [
            -80.334715,
            25.761905
          ],
          [
            -80.333783,
            25.761938
          ],
          [
            -80.332962,
            25.761964
          ],
          [
            -80.332563,
            25.761975
          ],
          [
            -80.331842,
            25.761997
          ],
          [
            -80.331515,
            25.762009
          ],
          [
            -80.331056,
            25.762021
          ],
          [
            -80.330504,
            25.762037
          ],
          [
            -80.33012,
            25.762048
          ],
          [
            -80.329808,
            25.762057
          ],
          [
            -80.329702,
            25.762061
          ],
          [
            -80.329324,
            25.76207
          ],
          [
            -80.32871,
            25.762085
          ],
          [
            -80.328379,
            25.762091
          ],
          [
            -80.327935,
            25.7621
          ],
          [
            -80.327479,
            25.762109
          ],
          [
            -80.326833,
            25.762121
          ],
          [
            -80.326377,
            25.76213
          ],
          [
            -80.325669,
            25.762143
          ],
          [
            -80.325605,
            25.762144
          ],
          [
            -80.32495,
            25.762158
          ],
          [
            -80.324363,
            25.762169
          ],
          [
            -80.323926,
            25.762176
          ],
          [
            -80.32378,
            25.762179
          ],
          [
            -80.323002,
            25.762192
          ],
          [
            -80.321671,
            25.76225
          ],
          [
            -80.320535,
            25.762351
          ],
          [
            -80.31996,
            25.762394
          ],
          [
            -80.319838,
            25.762405
          ],
          [
            -80.319559,
            25.762436
          ],
          [
            -80.318258,
            25.762522
          ],
          [
            -80.31807,
            25.762527
          ],
          [
            -80.317658,
            25.762549
          ],
          [
            -80.317432,
            25.76256
          ],
          [
            -80.316601,
            25.762609
          ],
          [
            -80.316492,
            25.762614
          ],
          [
            -80.315785,
            25.762653
          ],
          [
            -80.315783,
            25.762345
          ],
          [
            -80.31578,
            25.762258
          ],
          [
            -80.315767,
            25.760891
          ],
          [
            -80.315743,
            25.75908
          ],
          [
            -80.315725,
            25.757258
          ],
          [
            -80.315715,
            25.75621
          ],
          [
            -80.315698,
            25.755466
          ],
          [
            -80.313703,
            25.755524
          ],
          [
            -80.312087,
            25.755573
          ],
          [
            -80.311914,
            25.755579
          ],
          [
            -80.311844,
            25.755551
          ],
          [
            -80.311743,
            25.755559
          ],
          [
            -80.311676,
            25.755566
          ],
          [
            -80.311474,
            25.755594
          ],
          [
            -80.311332,
            25.755596
          ],
          [
            -80.311008,
            25.755608
          ],
          [
            -80.310025,
            25.755635
          ],
          [
            -80.3097,
            25.75564
          ],
          [
            -80.308378,
            25.75568
          ],
          [
            -80.30728,
            25.755708
          ],
          [
            -80.305703,
            25.755755
          ],
          [
            -80.304079,
            25.755789
          ],
          [
            -80.303669,
            25.755812
          ],
          [
            -80.303392,
            25.755827
          ],
          [
            -80.303242,
            25.755831
          ],
          [
            -80.302921,
            25.755837
          ],
          [
            -80.302431,
            25.755851
          ],
          [
            -80.301674,
            25.755874
          ],
          [
            -80.30057,
            25.755906
          ],
          [
            -80.299677,
            25.755933
          ],
          [
            -80.297677,
            25.755987
          ],
          [
            -80.295675,
            25.756043
          ],
          [
            -80.29369,
            25.756102
          ],
          [
            -80.291926,
            25.756155
          ],
          [
            -80.29166,
            25.756161
          ],
          [
            -80.290807,
            25.756184
          ],
          [
            -80.290418,
            25.756195
          ],
          [
            -80.288689,
            25.756238
          ],
          [
            -80.288453,
            25.75624
          ],
          [
            -80.287578,
            25.756259
          ],
          [
            -80.287559,
            25.755639
          ],
          [
            -80.287551,
            25.755352
          ],
          [
            -80.287537,
            25.754973
          ],
          [
            -80.287532,
            25.754829
          ],
          [
            -80.287518,
            25.754466
          ],
          [
            -80.287507,
            25.754172
          ],
          [
            -80.287498,
            25.753929
          ],
          [
            -80.287494,
            25.753822
          ],
          [
            -80.286566,
            25.753853
          ],
          [
            -80.286191,
            25.753863
          ],
          [
            -80.285265,
            25.753893
          ],
          [
            -80.285252,
            25.753864
          ],
          [
            -80.285221,
            25.753852
          ],
          [
            -80.285194,
            25.75386
          ],
          [
            -80.285177,
            25.753894
          ],
          [
            -80.283555,
            25.753943
          ],
          [
            -80.28351,
            25.753937
          ],
          [
            -80.283434,
            25.753899
          ],
          [
            -80.283364,
            25.7538
          ],
          [
            -80.283277,
            25.753674
          ],
          [
            -80.282991,
            25.753765
          ],
          [
            -80.282661,
            25.753825
          ],
          [
            -80.281963,
            25.75386
          ],
          [
            -80.279315,
            25.753937
          ],
          [
            -80.277169,
            25.754001
          ],
          [
            -80.275216,
            25.754063
          ],
          [
            -80.27501,
            25.754078
          ],
          [
            -80.274754,
            25.75406
          ],
          [
            -80.274602,
            25.753998
          ],
          [
            -80.273605,
            25.753582
          ],
          [
            -80.27334,
            25.753472
          ],
          [
            -80.271681,
            25.752777
          ],
          [
            -80.269084,
            25.751689
          ],
          [
            -80.268633,
            25.751514
          ],
          [
            -80.268529,
            25.751496
          ],
          [
            -80.268376,
            25.751496
          ],
          [
            -80.266911,
            25.751561
          ],
          [
            -80.264859,
            25.75166
          ],
          [
            -80.263288,
            25.751732
          ],
          [
            -80.2628,
            25.751758
          ],
          [
            -80.261894,
            25.751815
          ],
          [
            -80.261665,
            25.751834
          ],
          [
            -80.261046,
            25.751873
          ],
          [
            -80.260786,
            25.75189
          ],
          [
            -80.259908,
            25.751961
          ],
          [
            -80.25966,
            25.751984
          ],
          [
            -80.258784,
            25.752057
          ],
          [
            -80.258672,
            25.752068
          ],
          [
            -80.257448,
            25.752166
          ],
          [
            -80.257274,
            25.752177
          ],
          [
            -80.256776,
            25.752217
          ],
          [
            -80.256314,
            25.75226
          ],
          [
            -80.255938,
            25.752289
          ],
          [
            -80.255651,
            25.752308
          ],
          [
            -80.255467,
            25.752322
          ],
          [
            -80.254668,
            25.752369
          ],
          [
            -80.254673,
            25.752553
          ],
          [
            -80.254705,
            25.753328
          ],
          [
            -80.254729,
            25.754039
          ],
          [
            -80.254751,
            25.754588
          ],
          [
            -80.254754,
            25.754679
          ],
          [
            -80.254774,
            25.755233
          ],
          [
            -80.25478,
            25.755399
          ],
          [
            -80.254789,
            25.755677
          ],
          [
            -80.254795,
            25.755831
          ],
          [
            -80.254802,
            25.756055
          ],
          [
            -80.25482,
            25.75659
          ],
          [
            -80.254825,
            25.756731
          ],
          [
            -80.254836,
            25.757035
          ],
          [
            -80.254845,
            25.757272
          ],
          [
            -80.254404,
            25.757285
          ],
          [
            -80.254335,
            25.757287
          ],
          [
            -80.254118,
            25.757291
          ],
          [
            -80.252832,
            25.757329
          ],
          [
            -80.250824,
            25.757391
          ],
          [
            -80.247739,
            25.757477
          ],
          [
            -80.246786,
            25.757511
          ],
          [
            -80.246382,
            25.757533
          ],
          [
            -80.246019,
            25.757543
          ],
          [
            -80.24473,
            25.757583
          ],
          [
            -80.242672,
            25.757647
          ],
          [
            -80.24061,
            25.757713
          ],
          [
            -80.240131,
            25.757727
          ],
          [
            -80.239109,
            25.757751
          ],
          [
            -80.238888,
            25.757758
          ],
          [
            -80.238818,
            25.75776
          ],
          [
            -80.238602,
            25.757776
          ],
          [
            -80.238489,
            25.757787
          ],
          [
            -80.238509,
            25.758242
          ],
          [
            -80.238527,
            25.758709
          ],
          [
            -80.238539,
            25.759042
          ],
          [
            -80.238556,
            25.759506
          ],
          [
            -80.238561,
            25.759628
          ],
          [
            -80.238602,
            25.760558
          ],
          [
            -80.238639,
            25.761481
          ],
          [
            -80.238645,
            25.761629
          ],
          [
            -80.238659,
            25.762066
          ],
          [
            -80.238675,
            25.762392
          ],
          [
            -80.238704,
            25.763263
          ],
          [
            -80.238716,
            25.76358
          ],
          [
            -80.23872,
            25.763692
          ],
          [
            -80.238723,
            25.764196
          ],
          [
            -80.238724,
            25.764427
          ],
          [
            -80.238728,
            25.764678
          ],
          [
            -80.238744,
            25.765168
          ],
          [
            -80.238297,
            25.765181
          ],
          [
            -80.238241,
            25.765182
          ],
          [
            -80.238056,
            25.765189
          ],
          [
            -80.237836,
            25.765205
          ],
          [
            -80.237726,
            25.76521
          ],
          [
            -80.237265,
            25.765227
          ],
          [
            -80.237109,
            25.765231
          ],
          [
            -80.236805,
            25.765239
          ],
          [
            -80.236707,
            25.765241
          ],
          [
            -80.236113,
            25.765257
          ],
          [
            -80.235889,
            25.765268
          ],
          [
            -80.235703,
            25.765274
          ],
          [
            -80.235681,
            25.765274
          ],
          [
            -80.235068,
            25.765285
          ],
          [
            -80.235007,
            25.765287
          ],
          [
            -80.234945,
            25.765289
          ],
          [
            -80.234769,
            25.765294
          ],
          [
            -80.233974,
            25.765318
          ],
          [
            -80.233581,
            25.765329
          ],
          [
            -80.233257,
            25.765339
          ],
          [
            -80.232752,
            25.765354
          ],
          [
            -80.230936,
            25.765411
          ],
          [
            -80.230734,
            25.765419
          ],
          [
            -80.230611,
            25.765421
          ],
          [
            -80.230384,
            25.765424
          ],
          [
            -80.23028,
            25.765427
          ],
          [
            -80.229871,
            25.765439
          ],
          [
            -80.229751,
            25.765443
          ],
          [
            -80.229267,
            25.765457
          ],
          [
            -80.228994,
            25.765465
          ],
          [
            -80.228752,
            25.765471
          ],
          [
            -80.228497,
            25.765476
          ],
          [
            -80.228416,
            25.765477
          ],
          [
            -80.228147,
            25.765482
          ],
          [
            -80.227798,
            25.765492
          ],
          [
            -80.227679,
            25.765496
          ],
          [
            -80.227461,
            25.765502
          ],
          [
            -80.226618,
            25.765525
          ],
          [
            -80.225888,
            25.765542
          ],
          [
            -80.225827,
            25.765543
          ],
          [
            -80.225805,
            25.765544
          ],
          [
            -80.225709,
            25.765546
          ],
          [
            -80.225255,
            25.765558
          ],
          [
            -80.225026,
            25.765564
          ],
          [
            -80.224584,
            25.765578
          ],
          [
            -80.224055,
            25.765589
          ],
          [
            -80.224033,
            25.76559
          ],
          [
            -80.223607,
            25.765601
          ],
          [
            -80.222983,
            25.765617
          ],
          [
            -80.222884,
            25.765619
          ],
          [
            -80.222847,
            25.76562
          ],
          [
            -80.222514,
            25.765629
          ],
          [
            -80.222232,
            25.765637
          ],
          [
            -80.22208,
            25.765641
          ],
          [
            -80.221925,
            25.765645
          ],
          [
            -80.221793,
            25.765649
          ],
          [
            -80.221705,
            25.765651
          ],
          [
            -80.22152,
            25.765656
          ],
          [
            -80.221239,
            25.765664
          ],
          [
            -80.22107,
            25.765669
          ],
          [
            -80.220848,
            25.765676
          ],
          [
            -80.220544,
            25.765686
          ],
          [
            -80.220224,
            25.765693
          ],
          [
            -80.219525,
            25.765717
          ],
          [
            -80.219035,
            25.76573
          ],
          [
            -80.218992,
            25.765731
          ]
        ]
      },
      "properties": {
        "duration_s": 2001.4,
        "distance_m": 18837.3,
        "name": "Detour demo route",
        "stroke": "#16803c",
        "synthetic": true
      }
    },
    {
      "type": "Feature",
      "geometry": {
        "type": "Polygon",
        "coordinates": [
          [
            [
              -80.27088655817165,
              25.783096
            ],
            [
              -80.27093754819046,
              25.783444750060774
            ],
            [
              -80.27108704336138,
              25.783769733381245
            ],
            [
              -80.27132485583553,
              25.784048802885177
            ],
            [
              -80.27163477908583,
              25.784262940447068
            ],
            [
              -80.27199569235493,
              25.78439755294595
            ],
            [
              -80.272383,
              25.784443466762486
            ],
            [
              -80.27277030764508,
              25.78439755294595
            ],
            [
              -80.27313122091418,
              25.784262940447068
            ],
            [
              -80.27344114416448,
              25.784048802885177
            ],
            [
              -80.27367895663863,
              25.783769733381245
            ],
            [
              -80.27382845180955,
              25.783444750060774
            ],
            [
              -80.27387944182836,
              25.783096
            ],
            [
              -80.27382845180955,
              25.782747249939227
            ],
            [
              -80.27367895663863,
              25.782422266618756
            ],
            [
              -80.27344114416448,
              25.782143197114824
            ],
            [
              -80.27313122091418,
              25.781929059552933
            ],
            [
              -80.27277030764508,
              25.78179444705405
            ],
            [
              -80.272383,
              25.781748533237515
            ],
            [
              -80.27199569235493,
              25.78179444705405
            ],
            [
              -80.27163477908583,
              25.781929059552933
            ],
            [
              -80.27132485583553,
              25.782143197114824
            ],
            [
              -80.27108704336138,
              25.782422266618756
            ],
            [
              -80.27093754819046,
              25.782747249939227
            ],
            [
              -80.27088655817165,
              25.783096
            ]
          ]
        ]
      },
      "properties": {
        "name": "Synthetic report \u2014 demo only",
        "synthetic": true,
        "stroke": "#bd4b4b",
        "fill": "#bd4b4b",
        "fill-opacity": 0.3
      }
    }
  ]
}
